GOES 2                  
1 10061U 77048A   24111.56132865 -.00000186  00000+0  00000+0 0  9993
2 10061   8.2926 300.2723 0012173  42.8252 172.7670  0.99395687 38446
